[{"OBJECT_NAME":"FLOCK 4G-15","OBJECT_ID":"2025-009BX","EPOCH":"2026-03-09T17:13:37.807680","MEAN_MOTION":15.27266411,"ECCENTRICITY":0.00036988,"INCLINATION":97.4054,"RA_OF_ASC_NODE":151.1927,"ARG_OF_PERICENTER":316.8208,"MEAN_ANOMALY":43.274,"EPHEMERIS_TYPE":0,"CLASSIFICATION_TYPE":"U","NORAD_CAT_ID":62678,"ELEMENT_SET_NO":999,"REV_AT_EPOCH":12135,"BSTAR":0.00047574812,"MEAN_MOTION_DOT":0.00012647,"MEAN_MOTION_DDOT":0},{"OBJECT_NAME":"STARLINK-33821","OBJECT_ID":"2025-093Z","EPOCH":"2026-03-09T01:24:43.857216","MEAN_MOTION":15.27586901,"ECCENTRICITY":9.015e-5,"INCLINATION":43.0003,"RA_OF_ASC_NODE":81.5957,"ARG_OF_PERICENTER":277.1325,"MEAN_ANOMALY":82.9424,"EPHEMERIS_TYPE":0,"CLASSIFICATION_TYPE":"U","NORAD_CAT_ID":63859,"ELEMENT_SET_NO":999,"REV_AT_EPOCH":4785,"BSTAR":0.0011694757,"MEAN_MOTION_DOT":0.00032066,"MEAN_MOTION_DDOT":0}]
