FLOCK 4G-15             
1 62678U 25009BX  26068.71779869  .00012647  00000+0  47575-3 0  9991
2 62678  97.4054 151.1927 0003699 316.8208  43.2740 15.27266411121358
STARLINK-33821          
1 63859U 25093Z   26068.05884094  .00032066  00000+0  11695-2 0  9990
2 63859  43.0003  81.5957 0000901 277.1325  82.9424 15.27586901 47852
